ONEWEB-0545             
1 54647U 22166F   24200.58815430  .00000005  00000+0 -20078-4 0  9991
2 54647  87.9273  23.0725 0002319  86.3942 273.7457 13.21826031 79211
ONEWEB-0580             
1 54648U 22166G   24200.56134184  .00000028  00000+0  36488-4 0  9996
2 54648  87.9282  23.0489 0002337  95.8709 264.2691 13.21826594 79258
ONEWEB-0582             
1 54649U 22166H   24200.52822721  .00000090  00000+0  18662-3 0  9996
2 54649  87.9278  23.0916 0002457 100.4853 259.6558 13.21825847 79222
ONEWEB-0583             
1 54650U 22166J   24200.53926535  .00000051  00000+0  90826-4 0  9997
2 54650  87.9276  23.0893 0001906  88.0894 272.0458 13.21826383 79235
ONEWEB-0584             
1 54651U 22166K   24200.55976894  .00000024  00000+0  25955-4 0  9994
2 54651  87.9282  23.0527 0002153  92.5164 267.6217 13.21825958 79221
ONEWEB-0585             
1 54652U 22166L   24200.58499384  .00000033  00000+0  48404-4 0  9996
2 54652  87.9284  23.0569 0001737  87.8470 272.2863 13.21826366 79238
ONEWEB-0586             
1 54653U 22166M   24200.59759918  .00000125  00000+0  27223-3 0  9997
2 54653  87.9278  23.0676 0002085  90.5210 269.6163 13.21824358 79233
ONEWEB-0587             
1 54654U 22166N   24200.53136984  .00000063  00000+0  12013-3 0  9996
2 54654  87.9276  23.0352 0001552  84.4347 275.6964 13.21826779 79385
