<?xml version="1.0" encoding="UTF-8"?>
<ndm xmlns:xsi="http://www.w3.org/2001/XMLSchema-instance" xsi:noNamespaceSchemaLocation="https://sanaregistry.org/r/ndmxml_unqualified/ndmxml-2.0.0-master-2.0.xsd">
<omm id="CCSDS_OMM_VERS" version="2.0">
<header><CREATION_DATE/><ORIGINATOR/></header><body><segment><metadata><OBJECT_NAME>ONEWEB-0545</OBJECT_NAME><OBJECT_ID>2022-166F</OBJECT_ID><CENTER_NAME>EARTH</CENTER_NAME><REF_FRAME>TEME</REF_FRAME><TIME_SYSTEM>UTC</TIME_SYSTEM><MEAN_ELEMENT_THEORY>SGP4</MEAN_ELEMENT_THEORY></metadata><data><meanElements><EPOCH>2024-07-18T14:06:56.531520</EPOCH><MEAN_MOTION>13.21826031</MEAN_MOTION><ECCENTRICITY>.0002319</ECCENTRICITY><INCLINATION>87.9273</INCLINATION><RA_OF_ASC_NODE>23.0725</RA_OF_ASC_NODE><ARG_OF_PERICENTER>86.3942</ARG_OF_PERICENTER><MEAN_ANOMALY>273.7457</MEAN_ANOMALY></meanElements><tleParameters><EPHEMERIS_TYPE>0</EPHEMERIS_TYPE><CLASSIFICATION_TYPE>U</CLASSIFICATION_TYPE><NORAD_CAT_ID>54647</NORAD_CAT_ID><ELEMENT_SET_NO>999</ELEMENT_SET_NO><REV_AT_EPOCH>7921</REV_AT_EPOCH><BSTAR>-.20078E-4</BSTAR><MEAN_MOTION_DOT>.5E-7</MEAN_MOTION_DOT><MEAN_MOTION_DDOT>0</MEAN_MOTION_DDOT></tleParameters></data></segment></body></omm>
<omm id="CCSDS_OMM_VERS" version="2.0">
<header><CREATION_DATE/><ORIGINATOR/></header><body><segment><metadata><OBJECT_NAME>ONEWEB-0580</OBJECT_NAME><OBJECT_ID>2022-166G</OBJECT_ID><CENTER_NAME>EARTH</CENTER_NAME><REF_FRAME>TEME</REF_FRAME><TIME_SYSTEM>UTC</TIME_SYSTEM><MEAN_ELEMENT_THEORY>SGP4</MEAN_ELEMENT_THEORY></metadata><data><meanElements><EPOCH>2024-07-18T13:28:19.934976</EPOCH><MEAN_MOTION>13.21826594</MEAN_MOTION><ECCENTRICITY>.0002337</ECCENTRICITY><INCLINATION>87.9282</INCLINATION><RA_OF_ASC_NODE>23.0489</RA_OF_ASC_NODE><ARG_OF_PERICENTER>95.8709</ARG_OF_PERICENTER><MEAN_ANOMALY>264.2691</MEAN_ANOMALY></meanElements><tleParameters><EPHEMERIS_TYPE>0</EPHEMERIS_TYPE><CLASSIFICATION_TYPE>U</CLASSIFICATION_TYPE><NORAD_CAT_ID>54648</NORAD_CAT_ID><ELEMENT_SET_NO>999</ELEMENT_SET_NO><REV_AT_EPOCH>7925</REV_AT_EPOCH><BSTAR>.36488E-4</BSTAR><MEAN_MOTION_DOT>.28E-6</MEAN_MOTION_DOT><MEAN_MOTION_DDOT>0</MEAN_MOTION_DDOT></tleParameters></data></segment></body></omm>
<omm id="CCSDS_OMM_VERS" version="2.0">
<header><CREATION_DATE/><ORIGINATOR/></header><body><segment><metadata><OBJECT_NAME>ONEWEB-0582</OBJECT_NAME><OBJECT_ID>2022-166H</OBJECT_ID><CENTER_NAME>EARTH</CENTER_NAME><REF_FRAME>TEME</REF_FRAME><TIME_SYSTEM>UTC</TIME_SYSTEM><MEAN_ELEMENT_THEORY>SGP4</MEAN_ELEMENT_THEORY></metadata><data><meanElements><EPOCH>2024-07-18T12:40:38.830944</EPOCH><MEAN_MOTION>13.21825847</MEAN_MOTION><ECCENTRICITY>.0002457</ECCENTRICITY><INCLINATION>87.9278</INCLINATION><RA_OF_ASC_NODE>23.0916</RA_OF_ASC_NODE><ARG_OF_PERICENTER>100.4853</ARG_OF_PERICENTER><MEAN_ANOMALY>259.6558</MEAN_ANOMALY></meanElements><tleParameters><EPHEMERIS_TYPE>0</EPHEMERIS_TYPE><CLASSIFICATION_TYPE>U</CLASSIFICATION_TYPE><NORAD_CAT_ID>54649</NORAD_CAT_ID><ELEMENT_SET_NO>999</ELEMENT_SET_NO><REV_AT_EPOCH>7922</REV_AT_EPOCH><BSTAR>.18662E-3</BSTAR><MEAN_MOTION_DOT>.9E-6</MEAN_MOTION_DOT><MEAN_MOTION_DDOT>0</MEAN_MOTION_DDOT></tleParameters></data></segment></body></omm>
<omm id="CCSDS_OMM_VERS" version="2.0">
<header><CREATION_DATE/><ORIGINATOR/></header><body><segment><metadata><OBJECT_NAME>ONEWEB-0583</OBJECT_NAME><OBJECT_ID>2022-166J</OBJECT_ID><CENTER_NAME>EARTH</CENTER_NAME><REF_FRAME>TEME</REF_FRAME><TIME_SYSTEM>UTC</TIME_SYSTEM><MEAN_ELEMENT_THEORY>SGP4</MEAN_ELEMENT_THEORY></metadata><data><meanElements><EPOCH>2024-07-18T12:56:32.526240</EPOCH><MEAN_MOTION>13.21826383</MEAN_MOTION><ECCENTRICITY>.0001906</ECCENTRICITY><INCLINATION>87.9276</INCLINATION><RA_OF_ASC_NODE>23.0893</RA_OF_ASC_NODE><ARG_OF_PERICENTER>88.0894</ARG_OF_PERICENTER><MEAN_ANOMALY>272.0458</MEAN_ANOMALY></meanElements><tleParameters><EPHEMERIS_TYPE>0</EPHEMERIS_TYPE><CLASSIFICATION_TYPE>U</CLASSIFICATION_TYPE><NORAD_CAT_ID>54650</NORAD_CAT_ID><ELEMENT_SET_NO>999</ELEMENT_SET_NO><REV_AT_EPOCH>7923</REV_AT_EPOCH><BSTAR>.90826E-4</BSTAR><MEAN_MOTION_DOT>.51E-6</MEAN_MOTION_DOT><MEAN_MOTION_DDOT>0</MEAN_MOTION_DDOT></tleParameters></data></segment></body></omm>
<omm id="CCSDS_OMM_VERS" version="2.0">
<header><CREATION_DATE/><ORIGINATOR/></header><body><segment><metadata><OBJECT_NAME>ONEWEB-0584</OBJECT_NAME><OBJECT_ID>2022-166K</OBJECT_ID><CENTER_NAME>EARTH</CENTER_NAME><REF_FRAME>TEME</REF_FRAME><TIME_SYSTEM>UTC</TIME_SYSTEM><MEAN_ELEMENT_THEORY>SGP4</MEAN_ELEMENT_THEORY></metadata><data><meanElements><EPOCH>2024-07-18T13:26:04.036416</EPOCH><MEAN_MOTION>13.21825958</MEAN_MOTION><ECCENTRICITY>.0002153</ECCENTRICITY><INCLINATION>87.9282</INCLINATION><RA_OF_ASC_NODE>23.0527</RA_OF_ASC_NODE><ARG_OF_PERICENTER>92.5164</ARG_OF_PERICENTER><MEAN_ANOMALY>267.6217</MEAN_ANOMALY></meanElements><tleParameters><EPHEMERIS_TYPE>0</EPHEMERIS_TYPE><CLASSIFICATION_TYPE>U</CLASSIFICATION_TYPE><NORAD_CAT_ID>54651</NORAD_CAT_ID><ELEMENT_SET_NO>999</ELEMENT_SET_NO><REV_AT_EPOCH>7922</REV_AT_EPOCH><BSTAR>.25955E-4</BSTAR><MEAN_MOTION_DOT>.24E-6</MEAN_MOTION_DOT><MEAN_MOTION_DDOT>0</MEAN_MOTION_DDOT></tleParameters></data></segment></body></omm>
<omm id="CCSDS_OMM_VERS" version="2.0">
<header><CREATION_DATE/><ORIGINATOR/></header><body><segment><metadata><OBJECT_NAME>ONEWEB-0585</OBJECT_NAME><OBJECT_ID>2022-166L</OBJECT_ID><CENTER_NAME>EARTH</CENTER_NAME><REF_FRAME>TEME</REF_FRAME><TIME_SYSTEM>UTC</TIME_SYSTEM><MEAN_ELEMENT_THEORY>SGP4</MEAN_ELEMENT_THEORY></metadata><data><meanElements><EPOCH>2024-07-18T14:02:23.467776</EPOCH><MEAN_MOTION>13.21826366</MEAN_MOTION><ECCENTRICITY>.0001737</ECCENTRICITY><INCLINATION>87.9284</INCLINATION><RA_OF_ASC_NODE>23.0569</RA_OF_ASC_NODE><ARG_OF_PERICENTER>87.8470</ARG_OF_PERICENTER><MEAN_ANOMALY>272.2863</MEAN_ANOMALY></meanElements><tleParameters><EPHEMERIS_TYPE>0</EPHEMERIS_TYPE><CLASSIFICATION_TYPE>U</CLASSIFICATION_TYPE><NORAD_CAT_ID>54652</NORAD_CAT_ID><ELEMENT_SET_NO>999</ELEMENT_SET_NO><REV_AT_EPOCH>7923</REV_AT_EPOCH><BSTAR>.48404E-4</BSTAR><MEAN_MOTION_DOT>.33E-6</MEAN_MOTION_DOT><MEAN_MOTION_DDOT>0</MEAN_MOTION_DDOT></tleParameters></data></segment></body></omm>
<omm id="CCSDS_OMM_VERS" version="2.0">
<header><CREATION_DATE/><ORIGINATOR/></header><body><segment><metadata><OBJECT_NAME>ONEWEB-0586</OBJECT_NAME><OBJECT_ID>2022-166M</OBJECT_ID><CENTER_NAME>EARTH</CENTER_NAME><REF_FRAME>TEME</REF_FRAME><TIME_SYSTEM>UTC</TIME_SYSTEM><MEAN_ELEMENT_THEORY>SGP4</MEAN_ELEMENT_THEORY></metadata><data><meanElements><EPOCH>2024-07-18T14:20:32.569152</EPOCH><MEAN_MOTION>13.21824358</MEAN_MOTION><ECCENTRICITY>.0002085</ECCENTRICITY><INCLINATION>87.9278</INCLINATION><RA_OF_ASC_NODE>23.0676</RA_OF_ASC_NODE><ARG_OF_PERICENTER>90.5210</ARG_OF_PERICENTER><MEAN_ANOMALY>269.6163</MEAN_ANOMALY></meanElements><tleParameters><EPHEMERIS_TYPE>0</EPHEMERIS_TYPE><CLASSIFICATION_TYPE>U</CLASSIFICATION_TYPE><NORAD_CAT_ID>54653</NORAD_CAT_ID><ELEMENT_SET_NO>999</ELEMENT_SET_NO><REV_AT_EPOCH>7923</REV_AT_EPOCH><BSTAR>.27223E-3</BSTAR><MEAN_MOTION_DOT>.125E-5</MEAN_MOTION_DOT><MEAN_MOTION_DDOT>0</MEAN_MOTION_DDOT></tleParameters></data></segment></body></omm>
<omm id="CCSDS_OMM_VERS" version="2.0">
<header><CREATION_DATE/><ORIGINATOR/></header><body><segment><metadata><OBJECT_NAME>ONEWEB-0587</OBJECT_NAME><OBJECT_ID>2022-166N</OBJECT_ID><CENTER_NAME>EARTH</CENTER_NAME><REF_FRAME>TEME</REF_FRAME><TIME_SYSTEM>UTC</TIME_SYSTEM><MEAN_ELEMENT_THEORY>SGP4</MEAN_ELEMENT_THEORY></metadata><data><meanElements><EPOCH>2024-07-18T12:45:10.354176</EPOCH><MEAN_MOTION>13.21826779</MEAN_MOTION><ECCENTRICITY>.0001552</ECCENTRICITY><INCLINATION>87.9276</INCLINATION><RA_OF_ASC_NODE>23.0352</RA_OF_ASC_NODE><ARG_OF_PERICENTER>84.4347</ARG_OF_PERICENTER><MEAN_ANOMALY>275.6964</MEAN_ANOMALY></meanElements><tleParameters><EPHEMERIS_TYPE>0</EPHEMERIS_TYPE><CLASSIFICATION_TYPE>U</CLASSIFICATION_TYPE><NORAD_CAT_ID>54654</NORAD_CAT_ID><ELEMENT_SET_NO>999</ELEMENT_SET_NO><REV_AT_EPOCH>7938</REV_AT_EPOCH><BSTAR>.12013E-3</BSTAR><MEAN_MOTION_DOT>.63E-6</MEAN_MOTION_DOT><MEAN_MOTION_DDOT>0</MEAN_MOTION_DDOT></tleParameters></data></segment></body></omm>

</ndm>
